{
  "type": "FeatureCollection",
  "features": [
    {
      "type": "Feature",
      "properties": {
        "norad_id": 39227,
        "name": "ARIRANG-5 (KOMPSAT-5)",
        "group": "resource",
        "lat": -26.73308376008501,
        "lon": 179.7561770385479,
        "alt_km": 557.870248021306,
        "timestamp": "2025-12-17T15:50:09.433843+00:00",
        "meta_object_name": "ARIRANG-5 (KOMPSAT-5)",
        "meta_object_id": "2013-042A",
        "meta_epoch": "2025-12-17T07:58:28.838208",
        "meta_mean_motion": 15.04525005,
        "meta_eccentricity": 0.0003448,
        "meta_inclination": 97.6147,
        "meta_ra_of_asc_node": 175.5698,
        "meta_arg_of_pericenter": 42.7296,
        "meta_mean_anomaly": 317.4197,
        "meta_ephemeris_type": 0,
        "meta_classification_type": "U",
        "meta_norad_cat_id": 39227,
        "meta_element_set_no": 999,
        "meta_rev_at_epoch": 67651,
        "meta_bstar": 0.00015536284,
        "meta_mean_motion_dot": 2.116e-05,
        "meta_mean_motion_ddot": 0,
        "tle_line1": "1 39227U 13042A   25351.33227822  .00002116  00000+0  15536-3 0  9990",
        "tle_line2": "2 39227  97.6147 175.5698 0003448  42.7296 317.4197 15.04525005676513"
      },
      "geometry": {
        "type": "Point",
        "coordinates": [
          179.7561770385479,
          -26.73308376008501
        ]
      }
    },
    {
      "type": "Feature",
      "properties": {
        "norad_id": 39418,
        "name": "SKYSAT-A",
        "group": "resource",
        "lat": 67.17434138148275,
        "lon": -120.2671517174911,
        "alt_km": 528.9462399684635,
        "timestamp": "2025-12-17T15:50:09.433854+00:00",
        "meta_object_name": "SKYSAT-A",
        "meta_object_id": "2013-066C",
        "meta_epoch": "2025-12-17T02:37:57.865728",
        "meta_mean_motion": 15.11635302,
        "meta_eccentricity": 0.00209845,
        "meta_inclination": 97.4107,
        "meta_ra_of_asc_node": 41.1857,
        "meta_arg_of_pericenter": 220.7174,
        "meta_mean_anomaly": 139.2489,
        "meta_ephemeris_type": 0,
        "meta_classification_type": "U",
        "meta_norad_cat_id": 39418,
        "meta_element_set_no": 999,
        "meta_rev_at_epoch": 66096,
        "meta_bstar": 0.00017171952,
        "meta_mean_motion_dot": 2.869e-05,
        "meta_mean_motion_ddot": 0,
        "tle_line1": "1 39418U 13066C   25351.10969752  .00002869  00000+0  17172-3 0  9991",
        "tle_line2": "2 39418  97.4107  41.1857 0020984 220.7174 139.2489 15.11635302660967"
      },
      "geometry": {
        "type": "Point",
        "coordinates": [
          -120.2671517174911,
          67.17434138148275
        ]
      }
    },
    {
      "type": "Feature",
      "properties": {
        "norad_id": 39419,
        "name": "DUBAISAT-2",
        "group": "resource",
        "lat": -16.530029950717886,
        "lon": 159.6918279533422,
        "alt_km": 548.0930537025242,
        "timestamp": "2025-12-17T15:50:09.433864+00:00",
        "meta_object_name": "DUBAISAT-2",
        "meta_object_id": "2013-066D",
        "meta_epoch": "2025-12-17T05:24:49.647168",
        "meta_mean_motion": 15.08402819,
        "meta_eccentricity": 0.00101045,
        "meta_inclination": 97.4443,
        "meta_ra_of_asc_node": 341.4949,
        "meta_arg_of_pericenter": 305.3882,
        "meta_mean_anomaly": 54.6402,
        "meta_ephemeris_type": 0,
        "meta_classification_type": "U",
        "meta_norad_cat_id": 39419,
        "meta_element_set_no": 999,
        "meta_rev_at_epoch": 65894,
        "meta_bstar": 0.00025008151,
        "meta_mean_motion_dot": 3.832e-05,
        "meta_mean_motion_ddot": 0,
        "tle_line1": "1 39419U 13066D   25351.22557462  .00003832  00000+0  25008-3 0  9994",
        "tle_line2": "2 39419  97.4443 341.4949 0010104 305.3882  54.6402 15.08402819658949"
      },
      "geometry": {
        "type": "Point",
        "coordinates": [
          159.6918279533422,
          -16.530029950717886
        ]
      }
    },
    {
      "type": "Feature",
      "properties": {
        "norad_id": 39574,
        "name": "GPM-CORE",
        "group": "resource",
        "lat": -64.79358865164635,
        "lon": 99.23627502595828,
        "alt_km": 432.8216734403377,
        "timestamp": "2025-12-17T15:50:09.433874+00:00",
        "meta_object_name": "GPM-CORE",
        "meta_object_id": "2014-009C",
        "meta_epoch": "2025-12-17T06:54:48.936096",
        "meta_mean_motion": 15.44534475,
        "meta_eccentricity": 0.00095659,
        "meta_inclination": 64.9726,
        "meta_ra_of_asc_node": 197.4504,
        "meta_arg_of_pericenter": 246.8612,
        "meta_mean_anomaly": 113.1521,
        "meta_ephemeris_type": 0,
        "meta_classification_type": "U",
        "meta_norad_cat_id": 39574,
        "meta_element_set_no": 999,
        "meta_rev_at_epoch": 66971,
        "meta_bstar": 0.00014120098,
        "meta_mean_motion_dot": 6.347e-05,
        "meta_mean_motion_ddot": 0,
        "tle_line1": "1 39574U 14009C   25351.28806639  .00006347  00000+0  14120-3 0  9990",
        "tle_line2": "2 39574  64.9726 197.4504 0009565 246.8612 113.1521 15.44534475669713"
      },
      "geometry": {
        "type": "Point",
        "coordinates": [
          99.23627502595828,
          -64.79358865164635
        ]
      }
    },
    {
      "type": "Feature",
      "properties": {
        "norad_id": 39634,
        "name": "SENTINEL-1A",
        "group": "resource",
        "lat": 33.96561384572539,
        "lon": -8.731580655380837,
        "alt_km": 692.9950811484377,
        "timestamp": "2025-12-17T15:50:09.433885+00:00",
        "meta_object_name": "SENTINEL-1A",
        "meta_object_id": "2014-016A",
        "meta_epoch": "2025-12-17T07:27:01.591776",
        "meta_mean_motion": 14.59200899,
        "meta_eccentricity": 0.00012324,
        "meta_inclination": 98.1802,
        "meta_ra_of_asc_node": 356.4848,
        "meta_arg_of_pericenter": 82.5107,
        "meta_mean_anomaly": 277.6233,
        "meta_ephemeris_type": 0,
        "meta_classification_type": "U",
        "meta_norad_cat_id": 39634,
        "meta_element_set_no": 999,
        "meta_rev_at_epoch": 62349,
        "meta_bstar": 3.5855515e-05,
        "meta_mean_motion_dot": 1.23e-06,
        "meta_mean_motion_ddot": 0,
        "tle_line1": "1 39634U 14016A   25351.31043509  .00000123  00000+0  35856-4 0  9994",
        "tle_line2": "2 39634  98.1802 356.4848 0001232  82.5107 277.6233 14.59200899623495"
      },
      "geometry": {
        "type": "Point",
        "coordinates": [
          -8.731580655380837,
          33.96561384572539
        ]
      }
    },
    {
      "type": "Feature",
      "properties": {
        "norad_id": 39731,
        "name": "KAZEOSAT 1",
        "group": "resource",
        "lat": 64.57853582933305,
        "lon": 45.47242122974851,
        "alt_km": 744.6575729104734,
        "timestamp": "2025-12-17T15:50:09.433895+00:00",
        "meta_object_name": "KAZEOSAT 1",
        "meta_object_id": "2014-024A",
        "meta_epoch": "2025-12-17T07:12:18.912096",
        "meta_mean_motion": 14.42065553,
        "meta_eccentricity": 0.00011398,
        "meta_inclination": 98.3433,
        "meta_ra_of_asc_node": 63.1054,
        "meta_arg_of_pericenter": 96.4299,
        "meta_mean_anomaly": 263.7021,
        "meta_ephemeris_type": 0,
        "meta_classification_type": "U",
        "meta_norad_cat_id": 39731,
        "meta_element_set_no": 999,
        "meta_rev_at_epoch": 61234,
        "meta_bstar": 8.1123159e-05,
        "meta_mean_motion_dot": 2.24e-06,
        "meta_mean_motion_ddot": 0,
        "tle_line1": "1 39731U 14024A   25351.30021889  .00000224  00000+0  81123-4 0  9997",
        "tle_line2": "2 39731  98.3433  63.1054 0001139  96.4299 263.7021 14.42065553612349"
      },
      "geometry": {
        "type": "Point",
        "coordinates": [
          45.47242122974851,
          64.57853582933305
        ]
      }
    },
    {
      "type": "Feature",
      "properties": {
        "norad_id": 39766,
        "name": "ALOS-2",
        "group": "resource",
        "lat": -69.93629591404637,
        "lon": -115.97716624925287,
        "alt_km": 639.1299710505191,
        "timestamp": "2025-12-17T15:50:09.433905+00:00",
        "meta_object_name": "ALOS-2",
        "meta_object_id": "2014-029A",
        "meta_epoch": "2025-12-17T06:35:12.570720",
        "meta_mean_motion": 14.79471004,
        "meta_eccentricity": 0.00013317,
        "meta_inclination": 97.9224,
        "meta_ra_of_asc_node": 86.0558,
        "meta_arg_of_pericenter": 96.3376,
        "meta_mean_anomaly": 263.7988,
        "meta_ephemeris_type": 0,
        "meta_classification_type": "U",
        "meta_norad_cat_id": 39766,
        "meta_element_set_no": 999,
        "meta_rev_at_epoch": 62468,
        "meta_bstar": 0.00013839671,
        "meta_mean_motion_dot": 9.82e-06,
        "meta_mean_motion_ddot": 0,
        "tle_line1": "1 39766U 14029A   25351.27445105  .00000982  00000+0  13840-3 0  9998",
        "tle_line2": "2 39766  97.9224  86.0558 0001331  96.3376 263.7988 14.79471004624686"
      },
      "geometry": {
        "type": "Point",
        "coordinates": [
          -115.97716624925287,
          -69.93629591404637
        ]
      }
    }
  ]
}